      'REF_FRAME': 'TEME',
      'TIME_SYSTEM': 'UTC',
      'MEAN_ELEMENT_THEORY': 'SGP4',
      'EPOCH': '2020-06-21 08:00:01.999872',
      'MEAN_MOTION': 15.05608785,
      'ECCENTRICITY': 0.000142,
      'INCLINATION': 53.001,
      'RA_OF_ASC_NODE': 57.1178,
      'ARG_OF_PERICENTER': 85.6624,
      'MEAN_ANOMALY': 25.385,
      'EPHEMERIS_TYPE': 0,
      'CLASSIFICATION_TYPE': 'U',
      'NORAD_CAT_ID': 45195,
      'ELEMENT_SET_NO': 999,
      'REV_AT_EPOCH': 1930,
      'BSTAR': -0.00241,
      'MEAN_MOTION_DOT': -0.00035291,
      'MEAN_MOTION_DDOT': 0,
      'SEMIMAJOR_AXIS': 6927.774,
      'PERIOD': 95.642,
      'APOAPSIS': 550.623,
      'PERIAPSIS': 548.655,
      'OBJECT_TYPE': 'PAYLOAD',
      'RCS_SIZE': 'LARGE',
      'COUNTRY_CODE': 'US',
      'LAUNCH_DATE': '2020-02-17',
      'SITE': 'AFETR',
      'DECAY_DATE': null,
      'DECAYED': 0,
      'FILE': 2770050,
      'GP_ID': 156071319,
      'TLE_LINE0': '0 STARLINK-1241',
      'TLE_LINE1':
          '1 45195U 20012T   20173.33335648 -.00035291  00000-0 -24131-2 0  9992',
      'TLE_LINE2':
          '2 45195  53.0011  57.1178 0001420  85.6624  25.3850 15.05608785 19304'
    },
    'version': 'v1.0',
    'launch': '5eb87d41ffd86e000604b383',
    'id': '5eed7715096e59000698572f'
  },
  {
    'spaceTrack': {
      'CCSDS_OMM_VERS': '2.0',
      'COMMENT': 'GENERATED VIA SPACE-TRACK.ORG API',
      'CREATION_DATE': '2020-06-21 10:06:09',
      'ORIGINATOR': '18 SPCS',
      'OBJECT_NAME': 'STARLINK-1216',
      'OBJECT_ID': '2020-012H',
      'CENTER_NAME': 'EARTH',
      'REF_FRAME': 'TEME',
      'TIME_SYSTEM': 'UTC',
      'MEAN_ELEMENT_THEORY': 'SGP4',
      'EPOCH': '2020-06-21 08:00:01.999872',
      'MEAN_MOTION': 15.05577389,
      'ECCENTRICITY': 0.0001667,
      'INCLINATION': 53.001,
      'RA_OF_ASC_NODE': 57.1229,
      'ARG_OF_PERICENTER': 91.5276,
      'MEAN_ANOMALY': 325.6424,
      'EPHEMERIS_TYPE': 0,
      'CLASSIFICATION_TYPE': 'U',
      'NORAD_CAT_ID': 45185,
      'ELEMENT_SET_NO': 999,
      'REV_AT_EPOCH': 1959,
      'BSTAR': -0.00263,
      'MEAN_MOTION_DOT': -0.00038392,
      'MEAN_MOTION_DDOT': 0,
      'SEMIMAJOR_AXIS': 6927.87,
      'PERIOD': 95.644,
      'APOAPSIS': 550.89,
      'PERIAPSIS': 548.581,
      'OBJECT_TYPE': 'PAYLOAD',
      'RCS_SIZE': 'LARGE',
      'COUNTRY_CODE': 'US',
      'LAUNCH_DATE': '2020-02-17',
      'SITE': 'AFETR',
      'DECAY_DATE': null,
      'DECAYED': 0,
      'FILE': 2770050,
      'GP_ID': 156071186,
      'TLE_LINE0': '0 STARLINK-1216',
      'TLE_LINE1':
          '1 45185U 20012H   20173.33335648 -.00038392  00000-0 -26302-2 0  9998',
      'TLE_LINE2':
          '2 45185  53.0011  57.1229 0001667  91.5276 325.6424 15.05577389 19591'
    },
    'version': 'v1.0',
    'launch': '5eb87d41ffd86e000604b383',
    'id': '5eed7715096e590006985730'
  },
  {
    'spaceTrack': {
      'CCSDS_OMM_VERS': '2.0',
      'COMMENT': 'GENERATED VIA SPACE-TRACK.ORG API',
      'CREATION_DATE': '2020-06-21 10:06:09',
      'ORIGINATOR': '18 SPCS',
      'OBJECT_NAME': 'STARLINK-1240',
      'OBJECT_ID': '2020-012S',
      'CENTER_NAME': 'EARTH',
      'REF_FRAME': 'TEME',
      'TIME_SYSTEM': 'UTC',
      'MEAN_ELEMENT_THEORY': 'SGP4',
      'EPOCH': '2020-06-21 08:00:01.999872',
      'MEAN_MOTION': 15.05613734,
      'ECCENTRICITY': 0.0001555,
      'INCLINATION': 53,
      'RA_OF_ASC_NODE': 57.1257,
      'ARG_OF_PERICENTER': 98.44,
      'MEAN_ANOMALY': 336.7424,
      'EPHEMERIS_TYPE': 0,
      'CLASSIFICATION_TYPE': 'U',
      'NORAD_CAT_ID': 45194,
      'ELEMENT_SET_NO': 999,
      'REV_AT_EPOCH': 1930,
      'BSTAR': -0.00257,
      'MEAN_MOTION_DOT': -0.00037568,
      'MEAN_MOTION_DDOT': 0,
      'SEMIMAJOR_AXIS': 6927.759,
      'PERIOD': 95.642,
      'APOAPSIS': 550.701,
      'PERIAPSIS': 548.547,
      'OBJECT_TYPE': 'PAYLOAD',
      'RCS_SIZE': 'LARGE',
      'COUNTRY_CODE': 'US',
      'LAUNCH_DATE': '2020-02-17',
      'SITE': 'AFETR',
      'DECAY_DATE': null,
      'DECAYED': 0,
      'FILE': 2770050,
      'GP_ID': 156071180,
      'TLE_LINE0': '0 STARLINK-1240',
      'TLE_LINE1':
          '1 45194U 20012S   20173.33335648 -.00037568  00000-0 -25705-2 0  9998',
      'TLE_LINE2':
          '2 45194  52.9997  57.1257 0001555  98.4400 336.7424 15.05613734 19301'
    },
    'version': 'v1.0',
    'launch': '5eb87d41ffd86e000604b383',
    'id': '5eed7715096e590006985731'
  },
  {
    'spaceTrack': {
      'CCSDS_OMM_VERS': '2.0',
      'COMMENT': 'GENERATED VIA SPACE-TRACK.ORG API',
      'CREATION_DATE': '2020-06-21 10:06:09',
      'ORIGINATOR': '18 SPCS',
      'OBJECT_NAME': 'STARLINK-1269',
      'OBJECT_ID': '2020-012V',
      'CENTER_NAME': 'EARTH',
      'REF_FRAME': 'TEME',
      'TIME_SYSTEM': 'UTC',
      'MEAN_ELEMENT_THEORY': 'SGP4',
      'EPOCH': '2020-06-21 08:00:01.999872',
      'MEAN_MOTION': 15.05589228,
      'ECCENTRICITY': 0.0001836,
      'INCLINATION': 52.999,
      'RA_OF_ASC_NODE': 57.1263,
      'ARG_OF_PERICENTER': 89.1168,
      'MEAN_ANOMALY': 129.9542,
      'EPHEMERIS_TYPE': 0,
      'CLASSIFICATION_TYPE': 'U',
      'NORAD_CAT_ID': 45197,
      'ELEMENT_SET_NO': 999,
      'REV_AT_EPOCH': 1932,
      'BSTAR': -0.00243,
      'MEAN_MOTION_DOT': -0.00035513,
      'MEAN_MOTION_DDOT': 0,
      'SEMIMAJOR_AXIS': 6927.834,
      'PERIOD': 95.643,
      'APOAPSIS': 550.971,
      'PERIAPSIS': 548.427,
      'OBJECT_TYPE': 'PAYLOAD',
      'RCS_SIZE': 'LARGE',
      'COUNTRY_CODE': 'US',
      'LAUNCH_DATE': '2020-02-17',
      'SITE': 'AFETR',
      'DECAY_DATE': null,
      'DECAYED': 0,
      'FILE': 2770053,
      'GP_ID': 156071330,
      'TLE_LINE0': '0 STARLINK-1269',
      'TLE_LINE1':
          '1 45197U 20012V   20173.33335648 -.00035513  00000-0 -24297-2 0  9994',
      'TLE_LINE2':
          '2 45197  52.9994  57.1263 0001836  89.1168 129.9542 15.05589228 19323'
    },
    'version': 'v1.0',
    'launch': '5eb87d41ffd86e000604b383',
    'id': '5eed7715096e590006985732'
  },
  {
    'spaceTrack': {
      'CCSDS_OMM_VERS': '2.0',
      'COMMENT': 'GENERATED VIA SPACE-TRACK.ORG API',
      'CREATION_DATE': '2020-06-21 10:06:09',
      'ORIGINATOR': '18 SPCS',
      'OBJECT_NAME': 'STARLINK-1293',
      'OBJECT_ID': '2020-019BD',
      'CENTER_NAME': 'EARTH',
      'REF_FRAME': 'TEME',
      'TIME_SYSTEM': 'UTC',
      'MEAN_ELEMENT_THEORY': 'SGP4',
      'EPOCH': '2020-06-21 08:00:01.999872',
      'MEAN_MOTION': 15.52756455,
      'ECCENTRICITY': 0.0004279,
      'INCLINATION': 52.996,
      'RA_OF_ASC_NODE': 150.2806,
      'ARG_OF_PERICENTER': 285.3153,
      'MEAN_ANOMALY': 14.6421,
      'EPHEMERIS_TYPE': 0,
      'CLASSIFICATION_TYPE': 'U',
      'NORAD_CAT_ID': 45411,
      'ELEMENT_SET_NO': 999,
      'REV_AT_EPOCH': 1522,
      'BSTAR': 0.0234,
      'MEAN_MOTION_DOT': 0.01641372,
      'MEAN_MOTION_DDOT': 0,
      'SEMIMAJOR_AXIS': 6786.819,
      'PERIOD': 92.738,
      'APOAPSIS': 411.588,
      'PERIAPSIS': 405.78,
      'OBJECT_TYPE': 'PAYLOAD',
      'RCS_SIZE': 'LARGE',
      'COUNTRY_CODE': 'US',
      'LAUNCH_DATE': '2020-03-18',
      'SITE': 'AFETR',
      'DECAY_DATE': null,
      'DECAYED': 0,
      'FILE': 2770052,
      'GP_ID': 156071210,
      'TLE_LINE0': '0 STARLINK-1293',
      'TLE_LINE1':
          '1 45411U 20019BD  20173.33335648  .01641372  00000-0  23395-1 0  9992',
      'TLE_LINE2':
          '2 45411  52.9960 150.2806 0004279 285.3153  14.6421 15.52756455 15222'
    },
    'version': 'v1.0',
    'launch': '5eb87d43ffd86e000604b385',
    'id': '5eed7715096e590006985733'
  },
  {
    'spaceTrack': {
      'CCSDS_OMM_VERS': '2.0',
      'COMMENT': 'GENERATED VIA SPACE-TRACK.ORG API',
      'CREATION_DATE': '2020-06-21 10:06:09',
      'ORIGINATOR': '18 SPCS',
      'OBJECT_NAME': 'STARLINK-1210',
      'OBJECT_ID': '2020-012AF',
      'CENTER_NAME': 'EARTH',
      'REF_FRAME': 'TEME',
      'TIME_SYSTEM': 'UTC',
      'MEAN_ELEMENT_THEORY': 'SGP4',
      'EPOCH': '2020-06-21 08:00:01.999872',
      'MEAN_MOTION': 15.05594627,
      'ECCENTRICITY': 0.0001628,
      'INCLINATION': 52.999,
      'RA_OF_ASC_NODE': 37.1286,
      'ARG_OF_PERICENTER': 77.8238,
      'MEAN_ANOMALY': 143.4491,
      'EPHEMERIS_TYPE': 0,
      'CLASSIFICATION_TYPE': 'U',
      'NORAD_CAT_ID': 45207,
      'ELEMENT_SET_NO': 999,
      'REV_AT_EPOCH': 1957,
      'BSTAR': -0.00161,
      'MEAN_MOTION_DOT': -0.00023625,
      'MEAN_MOTION_DDOT': 0,
      'SEMIMAJOR_AXIS': 6927.818,
      'PERIOD': 95.643,
      'APOAPSIS': 550.81,
      'PERIAPSIS': 548.555,
      'OBJECT_TYPE': 'PAYLOAD',
      'RCS_SIZE': 'LARGE',
      'COUNTRY_CODE': 'US',
      'LAUNCH_DATE': '2020-02-17',
      'SITE': 'AFETR',
      'DECAY_DATE': null,
      'DECAYED': 0,
      'FILE': 2770048,
      'GP_ID': 156071162,
      'TLE_LINE0': '0 STARLINK-1210',
      'TLE_LINE1':
          '1 45207U 20012AF  20173.33335648 -.00023625  00000-0 -16070-2 0  9997',
      'TLE_LINE2':
          '2 45207  52.9993  37.1286 0001628  77.8238 143.4491 15.05594627 19578'
    },
    'version': 'v1.0',
    'launch': '5eb87d41ffd86e000604b383',
    'id': '5eed7715096e590006985734'
  },
  {
    'spaceTrack': {
      'CCSDS_OMM_VERS': '2.0',
      'COMMENT': 'GENERATED VIA SPACE-TRACK.ORG API',
      'CREATION_DATE': '2020-06-21 10:06:09',
      'ORIGINATOR': '18 SPCS',
      'OBJECT_NAME': 'STARLINK-1228',
      'OBJECT_ID': '2020-012L',
      'CENTER_NAME': 'EARTH',
      'REF_FRAME': 'TEME',
      'TIME_SYSTEM': 'UTC',
      'MEAN_ELEMENT_THEORY': 'SGP4',
      'EPOCH': '2020-06-21 08:00:01.999872',
      'MEAN_MOTION': 15.07499929,
      'ECCENTRICITY': 0.0003982,
      'INCLINATION': 52.996,
      'RA_OF_ASC_NODE': 17.2014,
      'ARG_OF_PERICENTER': 100.4867,
      'MEAN_ANOMALY': 353.7976,
      'EPHEMERIS_TYPE': 0,
      'CLASSIFICATION_TYPE': 'U',
      'NORAD_CAT_ID': 45188,
      'ELEMENT_SET_NO': 999,
      'REV_AT_EPOCH': 1981,
      'BSTAR': 0.04039,
      'MEAN_MOTION_DOT': 0.00663181,
      'MEAN_MOTION_DDOT': 0,
      'SEMIMAJOR_AXIS': 6921.979,
